CCSDS_OMM_VERS = 2.0
CREATION_DATE  = 
ORIGINATOR     = 

OBJECT_NAME    = FLOCK 4H-33
OBJECT_ID      = 2025-276BY
CENTER_NAME    = EARTH
REF_FRAME      = TEME
TIME_SYSTEM    = UTC
MEAN_ELEMENT_THEORY = SGP/SGP4

EPOCH          = 2025-12-25T06:05:15.367776
MEAN_MOTION    = 15.18326813
ECCENTRICITY   = .00028066
INCLINATION    = 97.4421
RA_OF_ASC_NODE = 70.8385
ARG_OF_PERICENTER = 151.5892
MEAN_ANOMALY   = 208.5495

EPHEMERIS_TYPE = 0
CLASSIFICATION_TYPE = U
NORAD_CAT_ID   = 66736
ELEMENT_SET_NO = 999
REV_AT_EPOCH   = 402
BSTAR          = .5492554E-3
MEAN_MOTION_DOT = .11215E-3
MEAN_MOTION_DDOT = 0

CCSDS_OMM_VERS = 2.0
CREATION_DATE  = 
ORIGINATOR     = 

OBJECT_NAME    = FLOCK 4H-34
OBJECT_ID      = 2025-276BZ
CENTER_NAME    = EARTH
REF_FRAME      = TEME
TIME_SYSTEM    = UTC
MEAN_ELEMENT_THEORY = SGP/SGP4

EPOCH          = 2025-12-25T06:07:59.848320
MEAN_MOTION    = 15.18198576
ECCENTRICITY   = .00008615
INCLINATION    = 97.4435
RA_OF_ASC_NODE = 70.8410
ARG_OF_PERICENTER = 140.1807
MEAN_ANOMALY   = 219.9490

EPHEMERIS_TYPE = 0
CLASSIFICATION_TYPE = U
NORAD_CAT_ID   = 66737
ELEMENT_SET_NO = 999
REV_AT_EPOCH   = 327
BSTAR          = .13685529E-2
MEAN_MOTION_DOT = .28002E-3
MEAN_MOTION_DDOT = 0

CCSDS_OMM_VERS = 2.0
CREATION_DATE  = 
ORIGINATOR     = 

OBJECT_NAME    = FLOCK 4H-35
OBJECT_ID      = 2025-276CA
CENTER_NAME    = EARTH
REF_FRAME      = TEME
TIME_SYSTEM    = UTC
MEAN_ELEMENT_THEORY = SGP/SGP4

EPOCH          = 2025-12-25T06:05:25.939680
MEAN_MOTION    = 15.18276847
ECCENTRICITY   = .0002631
INCLINATION    = 97.4398
RA_OF_ASC_NODE = 70.8293
ARG_OF_PERICENTER = 142.1332
MEAN_ANOMALY   = 218.0088

EPHEMERIS_TYPE = 0
CLASSIFICATION_TYPE = U
NORAD_CAT_ID   = 66738
ELEMENT_SET_NO = 999
REV_AT_EPOCH   = 331
BSTAR          = .50037231E-3
MEAN_MOTION_DOT = .10195E-3
MEAN_MOTION_DDOT = 0

CCSDS_OMM_VERS = 2.0
CREATION_DATE  = 
ORIGINATOR     = 

OBJECT_NAME    = FLOCK 4H-36
OBJECT_ID      = 2025-276CB
CENTER_NAME    = EARTH
REF_FRAME      = TEME
TIME_SYSTEM    = UTC
MEAN_ELEMENT_THEORY = SGP/SGP4

EPOCH          = 2025-12-25T06:11:49.150464
MEAN_MOTION    = 15.18027533
ECCENTRICITY   = .00025245
INCLINATION    = 97.4443
RA_OF_ASC_NODE = 70.8414
ARG_OF_PERICENTER = 175.0716
MEAN_ANOMALY   = 185.0543

EPHEMERIS_TYPE = 0
CLASSIFICATION_TYPE = U
NORAD_CAT_ID   = 66739
ELEMENT_SET_NO = 999
REV_AT_EPOCH   = 402
BSTAR          = .48808262E-3
MEAN_MOTION_DOT = .9871E-4
MEAN_MOTION_DDOT = 0

CCSDS_OMM_VERS = 2.0
CREATION_DATE  = 
ORIGINATOR     = 

OBJECT_NAME    = TRANSPORTER-15CC
OBJECT_ID      = 2025-276CC
CENTER_NAME    = EARTH
REF_FRAME      = TEME
TIME_SYSTEM    = UTC
MEAN_ELEMENT_THEORY = SGP/SGP4

EPOCH          = 2025-12-25T04:44:23.395200
MEAN_MOTION    = 15.17750055
ECCENTRICITY   = .00021745
INCLINATION    = 97.4407
RA_OF_ASC_NODE = 70.7597
ARG_OF_PERICENTER = 224.0053
MEAN_ANOMALY   = 136.1008

EPHEMERIS_TYPE = 0
CLASSIFICATION_TYPE = U
NORAD_CAT_ID   = 66740
ELEMENT_SET_NO = 999
REV_AT_EPOCH   = 401
BSTAR          = .54475063E-3
MEAN_MOTION_DOT = .10939E-3
MEAN_MOTION_DDOT = 0

CCSDS_OMM_VERS = 2.0
CREATION_DATE  = 
ORIGINATOR     = 

OBJECT_NAME    = TRANSPORTER-15CD
OBJECT_ID      = 2025-276CD
CENTER_NAME    = EARTH
REF_FRAME      = TEME
TIME_SYSTEM    = UTC
MEAN_ELEMENT_THEORY = SGP/SGP4

EPOCH          = 2025-12-24T22:26:13.477344
MEAN_MOTION    = 15.17640949
ECCENTRICITY   = .00011404
INCLINATION    = 97.4404
RA_OF_ASC_NODE = 70.4905
ARG_OF_PERICENTER = 216.2460
MEAN_ANOMALY   = 143.8696

EPHEMERIS_TYPE = 0
CLASSIFICATION_TYPE = U
NORAD_CAT_ID   = 66741
ELEMENT_SET_NO = 999
REV_AT_EPOCH   = 397
BSTAR          = .32228281E-3
MEAN_MOTION_DOT = .642E-4
MEAN_MOTION_DDOT = 0

CCSDS_OMM_VERS = 2.0
CREATION_DATE  = 
ORIGINATOR     = 

OBJECT_NAME    = TRANSPORTER-15CE
OBJECT_ID      = 2025-276CE
CENTER_NAME    = EARTH
REF_FRAME      = TEME
TIME_SYSTEM    = UTC
MEAN_ELEMENT_THEORY = SGP/SGP4

EPOCH          = 2025-12-25T03:08:40.960896
MEAN_MOTION    = 15.17729922
ECCENTRICITY   = .00018328
INCLINATION    = 97.4399
RA_OF_ASC_NODE = 70.6847
ARG_OF_PERICENTER = 179.6830
MEAN_ANOMALY   = 180.4406

EPHEMERIS_TYPE = 0
CLASSIFICATION_TYPE = U
NORAD_CAT_ID   = 66742
ELEMENT_SET_NO = 999
REV_AT_EPOCH   = 400
BSTAR          = .48374372E-3
MEAN_MOTION_DOT = .9699E-4
MEAN_MOTION_DDOT = 0

CCSDS_OMM_VERS = 2.0
CREATION_DATE  = 
ORIGINATOR     = 

OBJECT_NAME    = TRANSPORTER-15CF
OBJECT_ID      = 2025-276CF
CENTER_NAME    = EARTH
REF_FRAME      = TEME
TIME_SYSTEM    = UTC
MEAN_ELEMENT_THEORY = SGP/SGP4

EPOCH          = 2025-12-25T04:50:49.043328
MEAN_MOTION    = 15.11484429
ECCENTRICITY   = .00349179
INCLINATION    = 97.4397
RA_OF_ASC_NODE = 70.7430
ARG_OF_PERICENTER = 109.5161
MEAN_ANOMALY   = 250.9846

EPHEMERIS_TYPE = 0
CLASSIFICATION_TYPE = U
NORAD_CAT_ID   = 66743
ELEMENT_SET_NO = 999
REV_AT_EPOCH   = 401
BSTAR          = -.23723515E+0
MEAN_MOTION_DOT = -.3580195E-1
MEAN_MOTION_DDOT = 0

CCSDS_OMM_VERS = 2.0
CREATION_DATE  = 
ORIGINATOR     = 

OBJECT_NAME    = TRANSPORTER-15CG
OBJECT_ID      = 2025-276CG
CENTER_NAME    = EARTH
REF_FRAME      = TEME
TIME_SYSTEM    = UTC
MEAN_ELEMENT_THEORY = SGP/SGP4

EPOCH          = 2025-12-25T03:09:31.796064
MEAN_MOTION    = 15.19341003
ECCENTRICITY   = .00243198
INCLINATION    = 97.3868
RA_OF_ASC_NODE = 70.6590
ARG_OF_PERICENTER = 231.5349
MEAN_ANOMALY   = 128.3704

EPHEMERIS_TYPE = 0
CLASSIFICATION_TYPE = U
NORAD_CAT_ID   = 66744
ELEMENT_SET_NO = 999
REV_AT_EPOCH   = 400
BSTAR          = .64815362E-3
MEAN_MOTION_DOT = .13749E-3
MEAN_MOTION_DDOT = 0

CCSDS_OMM_VERS = 2.0
CREATION_DATE  = 
ORIGINATOR     = 

OBJECT_NAME    = TRANSPORTER-15CH
OBJECT_ID      = 2025-276CH
CENTER_NAME    = EARTH
REF_FRAME      = TEME
TIME_SYSTEM    = UTC
MEAN_ELEMENT_THEORY = SGP/SGP4

EPOCH          = 2025-12-25T04:49:54.558624
MEAN_MOTION    = 15.17407057
ECCENTRICITY   = .00012132
INCLINATION    = 97.4405
RA_OF_ASC_NODE = 70.7468
ARG_OF_PERICENTER = 194.1459
MEAN_ANOMALY   = 165.9741

EPHEMERIS_TYPE = 0
CLASSIFICATION_TYPE = U
NORAD_CAT_ID   = 66745
ELEMENT_SET_NO = 999
REV_AT_EPOCH   = 401
BSTAR          = .14886663E-3
MEAN_MOTION_DOT = .2909E-4
MEAN_MOTION_DDOT = 0

CCSDS_OMM_VERS = 2.0
CREATION_DATE  = 
ORIGINATOR     = 

OBJECT_NAME    = TRANSPORTER-15CJ
OBJECT_ID      = 2025-276CJ
CENTER_NAME    = EARTH
REF_FRAME      = TEME
TIME_SYSTEM    = UTC
MEAN_ELEMENT_THEORY = SGP/SGP4

EPOCH          = 2025-12-24T17:43:08.359680
MEAN_MOTION    = 15.19407301
ECCENTRICITY   = .00133735
INCLINATION    = 97.3836
RA_OF_ASC_NODE = 70.3325
ARG_OF_PERICENTER = 197.9255
MEAN_ANOMALY   = 162.1510

EPHEMERIS_TYPE = 0
CLASSIFICATION_TYPE = U
NORAD_CAT_ID   = 66746
ELEMENT_SET_NO = 999
REV_AT_EPOCH   = 394
BSTAR          = .92520196E-3
MEAN_MOTION_DOT = .19602E-3
MEAN_MOTION_DDOT = 0

CCSDS_OMM_VERS = 2.0
CREATION_DATE  = 
ORIGINATOR     = 

OBJECT_NAME    = W-SERIES 5
OBJECT_ID      = 2025-276CK
CENTER_NAME    = EARTH
REF_FRAME      = TEME
TIME_SYSTEM    = UTC
MEAN_ELEMENT_THEORY = SGP/SGP4

EPOCH          = 2025-12-25T08:00:01.000224
MEAN_MOTION    = 15.17591457
ECCENTRICITY   = .00015559
INCLINATION    = 97.4407
RA_OF_ASC_NODE = 70.8831
ARG_OF_PERICENTER = 192.5033
MEAN_ANOMALY   = 179.7110

EPHEMERIS_TYPE = 0
CLASSIFICATION_TYPE = U
NORAD_CAT_ID   = 66747
ELEMENT_SET_NO = 999
REV_AT_EPOCH   = 130
BSTAR          = -.2914651E-2
MEAN_MOTION_DOT = -.58128E-3
MEAN_MOTION_DDOT = 0

