FLOCK 4H-33             
1 66736U 25276BY  25359.25365009  .00011215  00000+0  54926-3 0  9992
2 66736  97.4421  70.8385 0002806 151.5892 208.5495 15.18326813  4022
FLOCK 4H-34             
1 66737U 25276BZ  25359.25555380  .00028002  00000+0  13686-2 0  9995
2 66737  97.4435  70.8410 0000861 140.1807 219.9490 15.18198576  3276
FLOCK 4H-35             
1 66738U 25276CA  25359.25377245  .00010195  00000+0  50037-3 0  9994
2 66738  97.4398  70.8293 0002631 142.1332 218.0088 15.18276847  3312
FLOCK 4H-36             
1 66739U 25276CB  25359.25820776  .00009871  00000+0  48808-3 0  9999
2 66739  97.4443  70.8414 0002524 175.0716 185.0543 15.18027533  4025
TRANSPORTER-15CC        
1 66740U 25276CC  25359.19749300  .00010939  00000+0  54475-3 0  9991
2 66740  97.4407  70.7597 0002174 224.0053 136.1008 15.17750055  4011
TRANSPORTER-15CD        
1 66741U 25276CD  25358.93487821  .00006420  00000+0  32228-3 0  9992
2 66741  97.4404  70.4905 0001140 216.2460 143.8696 15.17640949  3978
TRANSPORTER-15CE        
1 66742U 25276CE  25359.13102964  .00009699  00000+0  48374-3 0  9998
2 66742  97.4399  70.6847 0001832 179.6830 180.4406 15.17729922  4000
TRANSPORTER-15CF        
1 66743U 25276CF  25359.20195652 -.03580195  00000+0 -23724+0 0  9991
2 66743  97.4397  70.7430 0034917 109.5161 250.9846 15.11484429  4013
TRANSPORTER-15CG        
1 66744U 25276CG  25359.13161801  .00013749  00000+0  64815-3 0  9994
2 66744  97.3868  70.6590 0024319 231.5349 128.3704 15.19341003  4009
TRANSPORTER-15CH        
1 66745U 25276CH  25359.20132591  .00002909  00000+0  14887-3 0  9997
2 66745  97.4405  70.7468 0001213 194.1459 165.9741 15.17407057  4016
TRANSPORTER-15CJ        
1 66746U 25276CJ  25358.73829120  .00019602  00000+0  92520-3 0  9994
2 66746  97.3836  70.3325 0013373 197.9255 162.1510 15.19407301  3945
W-SERIES 5              
1 66747U 25276CK  25359.33334491 -.00058128  00000+0 -29147-2 0  9996
2 66747  97.4407  70.8831 0001555 192.5033 179.7110 15.17591457  1304
